{
  "type": "FeatureCollection",
  "features": [
    {
      "type": "Feature",
      "properties": {
        "norad_id": 37461,
        "name": "FENGYUN 1C DEB",
        "group": "fengyun-1c-debris",
        "lat": 41.88042795479041,
        "lon": -128.13004336990574,
        "alt_km": 1308.128984126849,
        "timestamp": "2025-12-19T10:50:01.490057+00:00",
        "meta_object_name": "FENGYUN 1C DEB",
        "meta_object_id": "1999-025EJF",
        "meta_epoch": "2025-11-27T22:25:56.122176",
        "meta_mean_motion": 12.7907076,
        "meta_eccentricity": 0.0667413,
        "meta_inclination": 99.8664,
        "meta_ra_of_asc_node": 221.8984,
        "meta_arg_of_pericenter": 359.7811,
        "meta_mean_anomaly": 0.291,
        "meta_ephemeris_type": 0,
        "meta_classification_type": "U",
        "meta_norad_cat_id": 37461,
        "meta_element_set_no": 999,
        "meta_rev_at_epoch": 51845,
        "meta_bstar": 0.0053613,
        "meta_mean_motion_dot": 3.048e-05,
        "meta_mean_motion_ddot": 0,
        "tle_line1": "1 37461U 99025EJF 25331.93467734  .00003048  00000+0  53613-2 0  9997",
        "tle_line2": "2 37461  99.8664 221.8984 0667413 359.7811   0.2910 12.79070760518454"
      },
      "geometry": {
        "type": "Point",
        "coordinates": [
          -128.13004336990574,
          41.88042795479041
        ]
      }
    },
    {
      "type": "Feature",
      "properties": {
        "norad_id": 37464,
        "name": "FENGYUN 1C DEB",
        "group": "fengyun-1c-debris",
        "lat": -25.380581941990876,
        "lon": -74.51126955907841,
        "alt_km": 1289.611345499041,
        "timestamp": "2025-12-19T10:50:01.490067+00:00",
        "meta_object_name": "FENGYUN 1C DEB",
        "meta_object_id": "1999-025EJJ",
        "meta_epoch": "2025-12-17T01:55:22.822464",
        "meta_mean_motion": 13.46929018,
        "meta_eccentricity": 0.04535861,
        "meta_inclination": 102.7053,
        "meta_ra_of_asc_node": 276.3358,
        "meta_arg_of_pericenter": 107.6712,
        "meta_mean_anomaly": 257.4457,
        "meta_ephemeris_type": 0,
        "meta_classification_type": "U",
        "meta_norad_cat_id": 37464,
        "meta_element_set_no": 999,
        "meta_rev_at_epoch": 60980,
        "meta_bstar": 0.0027782336,
        "meta_mean_motion_dot": 3.098e-05,
        "meta_mean_motion_ddot": 0,
        "tle_line1": "1 37464U 99025EJJ 25351.08012526  .00003098  00000+0  27782-2 0  9996",
        "tle_line2": "2 37464 102.7053 276.3358 0453586 107.6712 257.4457 13.46929018609803"
      },
      "geometry": {
        "type": "Point",
        "coordinates": [
          -74.51126955907841,
          -25.380581941990876
        ]
      }
    },
    {
      "type": "Feature",
      "properties": {
        "norad_id": 37470,
        "name": "FENGYUN 1C DEB",
        "group": "fengyun-1c-debris",
        "lat": 69.67547506176012,
        "lon": -18.03111570635146,
        "alt_km": 553.9513721030053,
        "timestamp": "2025-12-19T10:50:01.490078+00:00",
        "meta_object_name": "FENGYUN 1C DEB",
        "meta_object_id": "1999-025EJQ",
        "meta_epoch": "2025-12-18T08:46:22.753632",
        "meta_mean_motion": 15.02026596,
        "meta_eccentricity": 7.634e-05,
        "meta_inclination": 98.6685,
        "meta_ra_of_asc_node": 136.4328,
        "meta_arg_of_pericenter": 312.8238,
        "meta_mean_anomaly": 47.2919,
        "meta_ephemeris_type": 0,
        "meta_classification_type": "U",
        "meta_norad_cat_id": 37470,
        "meta_element_set_no": 999,
        "meta_rev_at_epoch": 65546,
        "meta_bstar": 0.0049334475,
        "meta_mean_motion_dot": 0.00065198,
        "meta_mean_motion_ddot": 0,
        "tle_line1": "1 37470U 99025EJQ 25352.36554113  .00065198  00000+0  49334-2 0  9994",
        "tle_line2": "2 37470  98.6685 136.4328 0000763 312.8238  47.2919 15.02026596655469"
      },
      "geometry": {
        "type": "Point",
        "coordinates": [
          -18.03111570635146,
          69.67547506176012
        ]
      }
    },
    {
      "type": "Feature",
      "properties": {
        "norad_id": 37474,
        "name": "FENGYUN 1C DEB",
        "group": "fengyun-1c-debris",
        "lat": 44.10569013091751,
        "lon": 28.49397752851515,
        "alt_km": 553.9321285734022,
        "timestamp": "2025-12-19T10:50:01.490088+00:00",
        "meta_object_name": "FENGYUN 1C DEB",
        "meta_object_id": "1999-025EJU",
        "meta_epoch": "2025-12-17T07:46:09.276672",
        "meta_mean_motion": 14.7520815,
        "meta_eccentricity": 0.01320065,
        "meta_inclination": 99.1653,
        "meta_ra_of_asc_node": 197.0828,
        "meta_arg_of_pericenter": 120.7322,
        "meta_mean_anomaly": 240.6963,
        "meta_ephemeris_type": 0,
        "meta_classification_type": "U",
        "meta_norad_cat_id": 37474,
        "meta_element_set_no": 999,
        "meta_rev_at_epoch": 62443,
        "meta_bstar": 0.00094441555,
        "meta_mean_motion_dot": 7.29e-05,
        "meta_mean_motion_ddot": 0,
        "tle_line1": "1 37474U 99025EJU 25351.32371848  .00007290  00000+0  94442-3 0  9995",
        "tle_line2": "2 37474  99.1653 197.0828 0132006 120.7322 240.6963 14.75208150624436"
      },
      "geometry": {
        "type": "Point",
        "coordinates": [
          28.49397752851515,
          44.10569013091751
        ]
      }
    },
    {
      "type": "Feature",
      "properties": {
        "norad_id": 37477,
        "name": "FENGYUN 1C DEB",
        "group": "fengyun-1c-debris",
        "lat": 79.27639362565716,
        "lon": -128.9731572579666,
        "alt_km": 792.4549479169709,
        "timestamp": "2025-12-19T10:50:01.490098+00:00",
        "meta_object_name": "FENGYUN 1C DEB",
        "meta_object_id": "1999-025EJX",
        "meta_epoch": "2025-12-16T18:06:36.022176",
        "meta_mean_motion": 14.19731482,
        "meta_eccentricity": 0.00371355,
        "meta_inclination": 98.6057,
        "meta_ra_of_asc_node": 355.3103,
        "meta_arg_of_pericenter": 94.8392,
        "meta_mean_anomaly": 265.7026,
        "meta_ephemeris_type": 0,
        "meta_classification_type": "U",
        "meta_norad_cat_id": 37477,
        "meta_element_set_no": 999,
        "meta_rev_at_epoch": 81971,
        "meta_bstar": 0.00055952668,
        "meta_mean_motion_dot": 1.15e-05,
        "meta_mean_motion_ddot": 0,
        "tle_line1": "1 37477U 99025EJX 25350.75458359  .00001150  00000+0  55953-3 0  9990",
        "tle_line2": "2 37477  98.6057 355.3103 0037135  94.8392 265.7026 14.19731482819713"
      },
      "geometry": {
        "type": "Point",
        "coordinates": [
          -128.9731572579666,
          79.27639362565716
        ]
      }
    },
    {
      "type": "Feature",
      "properties": {
        "norad_id": 37478,
        "name": "FENGYUN 1C DEB",
        "group": "fengyun-1c-debris",
        "lat": -79.26427765819474,
        "lon": 39.02431157777428,
        "alt_km": 886.8029424440947,
        "timestamp": "2025-12-19T10:50:01.490109+00:00",
        "meta_object_name": "FENGYUN 1C DEB",
        "meta_object_id": "1999-025EJY",
        "meta_epoch": "2025-12-14T05:55:23.732544",
        "meta_mean_motion": 13.02983973,
        "meta_eccentricity": 0.05482188,
        "meta_inclination": 99.6498,
        "meta_ra_of_asc_node": 330.5496,
        "meta_arg_of_pericenter": 315.7365,
        "meta_mean_anomaly": 40.1108,
        "meta_ephemeris_type": 0,
        "meta_classification_type": "U",
        "meta_norad_cat_id": 37478,
        "meta_element_set_no": 999,
        "meta_rev_at_epoch": 56581,
        "meta_bstar": 0.0055489953,
        "meta_mean_motion_dot": 3.525e-05,
        "meta_mean_motion_ddot": 0,
        "tle_line1": "1 37478U 99025EJY 25348.24680246  .00003525  00000+0  55490-2 0  9997",
        "tle_line2": "2 37478  99.6498 330.5496 0548218 315.7365  40.1108 13.02983973565818"
      },
      "geometry": {
        "type": "Point",
        "coordinates": [
          39.02431157777428,
          -79.26427765819474
        ]
      }
    },
    {
      "type": "Feature",
      "properties": {
        "norad_id": 37589,
        "name": "FENGYUN 1C DEB",
        "group": "fengyun-1c-debris",
        "lat": -44.34309644138178,
        "lon": 67.10420732865934,
        "alt_km": 791.7368535236783,
        "timestamp": "2025-12-19T10:50:01.490119+00:00",
        "meta_object_name": "FENGYUN 1C DEB",
        "meta_object_id": "1999-025EKH",
        "meta_epoch": "2025-12-14T22:19:52.787712",
        "meta_mean_motion": 14.08203479,
        "meta_eccentricity": 0.01182522,
        "meta_inclination": 99.0734,
        "meta_ra_of_asc_node": 251.544,
        "meta_arg_of_pericenter": 258.1684,
        "meta_mean_anomaly": 100.6202,
        "meta_ephemeris_type": 0,
        "meta_classification_type": "U",
        "meta_norad_cat_id": 37589,
        "meta_element_set_no": 999,
        "meta_rev_at_epoch": 82615,
        "meta_bstar": 0.0019842502,
        "meta_mean_motion_dot": 3.566e-05,
        "meta_mean_motion_ddot": 0,
        "tle_line1": "1 37589U 99025EKH 25348.93047208  .00003566  00000+0  19843-2 0  9998",
        "tle_line2": "2 37589  99.0734 251.5440 0118252 258.1684 100.6202 14.08203479826151"
      },
      "geometry": {
        "type": "Point",
        "coordinates": [
          67.10420732865934,
          -44.34309644138178
        ]
      }
    }
  ]
}